GOMX-1                  
1 39430U 13066Q   26165.18984862  .00001992  00000+0  30268-3 0  9993
2 39430  97.6484   5.8423 0130187  87.0635 274.5462 14.69450244669471
CUBEBUG-2 (LO-74)       
1 39440U 13066AA  26165.11577809  .00004533  00000+0  41941-3 0  9990
2 39440  97.8903 114.0809 0058614  38.9303 321.6115 14.93738647676539
NEE-02 KRYSAOR          
1 39441U 13066AB  26165.11302729  .00002524  00000+0  27928-3 0  9995
2 39441  97.8892 104.3496 0067709  80.0536 280.8313 14.86606396675747
FUNCUBE-1 (AO-73)       
1 39444U 13066AE  26164.87461990  .00007372  00000+0  45803-3 0  9994
2 39444  97.8267 136.2511 0035377 212.6416 147.2626 15.09452478679163
UWE-3                   
1 39446U 13066AG  26164.80677422  .00004526  00000+0  38955-3 0  9996
2 39446  97.8688 120.8577 0048115 332.4032  27.4636 14.96999955677071
SMDC ONE 2.4            
1 39469U 13072H   26165.10668531  .00010276  00000+0  39386-3 0  9991
2 39469 120.4929 340.1909 0144850  15.7431 344.8084 15.18129858117366
COSMOS 2488 (RODNIK-S 7)
1 39483U 13076A   26165.13997225  .00000121  00000+0  80074-3 0  9997
2 39483  82.4826 170.5932 0020827 101.5462 258.7958 12.42906040565518
COSMOS 2489 (RODNIK-S 8)
1 39484U 13076B   26165.11510855  .00000060  00000+0  35801-3 0  9996
2 39484  82.4864 171.9864 0022651 101.5649 258.7975 12.42879606565565
COSMOS 2490 (RODNIK-S 9)
1 39485U 13076C   26165.24798874  .00000044  00000+0  24746-3 0  9998
2 39485  82.4810 169.9725 0022682 116.2500 244.0914 12.42878118565516
KAZEOSAT 1              
1 39731U 14024A   26165.17692333  .00000081  00000+0  37533-4 0  9991
2 39731  98.3211 237.6986 0001378  75.0415 285.0927 14.42078684638128
COSMOS 2496 (RODNIK-S *)
1 39761U 14028A   26165.20551877 -.00000009  00000+0 -13642-3 0  9995
2 39761  82.4444 110.5982 0021315  84.9831 275.3680 12.42878485547146
COSMOS 2497 (RODNIK-S *)
1 39762U 14028B   26165.18083781 -.00000010  00000+0 -14375-3 0  9993
2 39762  82.4491 112.3022 0021888  80.3062 280.0489 12.42894072547145
COSMOS 2498 (RODNIK-S *)
1 39763U 14028C   26165.15864738 -.00000046  00000+0 -40456-3 0  9998
2 39763  82.4452 110.8045 0022604  79.9973 280.3656 12.42979989547176
HODOYOSHI-4             
1 40011U 14033B   26165.14274541  .00001851  00000+0  20591-3 0  9999
2 40011  97.5450 350.1126 0022688 319.1645  40.7871 14.88124313648359
UNISAT-6                
1 40012U 14033C   26165.10773015  .00003070  00000+0  33204-3 0  9996
2 40012  97.7871 317.8739 0046328  79.1987 281.4440 14.88231889645707
DEIMOS-2                
1 40013U 14033D   26165.16866704  .00000885  00000+0  88743-4 0  9991
2 40013  97.5841  39.7641 0001729  48.9566 311.1804 14.93717441637275
BUGSAT-1 (TITA)         
1 40014U 14033E   26165.19723025  .00007420  00000+0  39129-3 0  9998
2 40014  98.0433 257.5702 0027771 188.8029 171.2718 15.15559253655381
SAUDISAT 4              
1 40016U 14033G   26165.21078172  .00000623  00000+0  88582-4 0  9995
2 40016  97.7578 311.4485 0046225  83.3857 277.2614 14.79541128645630
APRIZESAT 9             
1 40018U 14033J   26164.94963153  .00000632  00000+0  10025-3 0  9994
2 40018  97.9056 298.2274 0065455 209.6629 150.0862 14.74210615643088
BRITE-CA1 (TORONTO)     
1 40020U 14033L   26164.91233455  .00000658  00000+0  10669-3 0  9991
2 40020  97.9734 293.9007 0077282 287.6929  71.5853 14.72672671641739
DUCHIFAT-1              
1 40021U 14033M   26165.14309872  .00112865  00000+0  11822-2 0  9990
2 40021  98.0474 223.8762 0003417 119.3968 240.7631 15.64039026655277
NANOSATC-BR1            
1 40024U 14033Q   26165.06907580  .00017308  00000+0  57336-3 0  9991
2 40024  98.0722 197.1804 0004118 171.0394 189.0919 15.31368944653509
